HST                     
1 20580U 90037B   26068.15977042  .00009063  00000+0  30023-3 0  9999
2 20580  28.4717  43.6133 0001837 120.9992 239.0785 15.29473555773239
STARLINK-30272          
1 57860U 23141W   26068.85627982  .00000438  00000+0  26917-4 0  9999
2 57860  53.1598 283.3355 0001085 124.0416 236.0688 15.30192704140358
